CCSDS_OMM_VERS = 2.0
CREATION_DATE  = 
ORIGINATOR     = 

OBJECT_NAME    = KOMPSAT-7
OBJECT_ID      = 2025-279A
CENTER_NAME    = EARTH
REF_FRAME      = TEME
TIME_SYSTEM    = UTC
MEAN_ELEMENT_THEORY = SGP/SGP4

EPOCH          = 2025-12-24T06:43:58.256832
MEAN_MOTION    = 15.00667900
ECCENTRICITY   = .00111867
INCLINATION    = 97.6458
RA_OF_ASC_NODE = 303.9466
ARG_OF_PERICENTER = 224.5500
MEAN_ANOMALY   = 135.4826

EPHEMERIS_TYPE = 0
CLASSIFICATION_TYPE = U
NORAD_CAT_ID   = 66820
ELEMENT_SET_NO = 999
REV_AT_EPOCH   = 338
BSTAR          = .25168819E-3
MEAN_MOTION_DOT = .3129E-4
MEAN_MOTION_DDOT = 0

CCSDS_OMM_VERS = 2.0
CREATION_DATE  = 
ORIGINATOR     = 

OBJECT_NAME    = STARLINK-35966
OBJECT_ID      = 2025-280A
CENTER_NAME    = EARTH
REF_FRAME      = TEME
TIME_SYSTEM    = UTC
MEAN_ELEMENT_THEORY = SGP/SGP4

EPOCH          = 2025-12-24T20:25:56.232192
MEAN_MOTION    = 15.52559258
ECCENTRICITY   = .0003203
INCLINATION    = 70.0006
RA_OF_ASC_NODE = 165.2423
ARG_OF_PERICENTER = 272.6205
MEAN_ANOMALY   = 87.4616

EPHEMERIS_TYPE = 0
CLASSIFICATION_TYPE = U
NORAD_CAT_ID   = 66821
ELEMENT_SET_NO = 999
REV_AT_EPOCH   = 481
BSTAR          = .99471E-3
MEAN_MOTION_DOT = .61592E-3
MEAN_MOTION_DDOT = 0

CCSDS_OMM_VERS = 2.0
CREATION_DATE  = 
ORIGINATOR     = 

OBJECT_NAME    = STARLINK-35958
OBJECT_ID      = 2025-280B
CENTER_NAME    = EARTH
REF_FRAME      = TEME
TIME_SYSTEM    = UTC
MEAN_ELEMENT_THEORY = SGP/SGP4

EPOCH          = 2025-12-24T20:25:26.677344
MEAN_MOTION    = 15.52605658
ECCENTRICITY   = .000373
INCLINATION    = 70.0005
RA_OF_ASC_NODE = 165.2417
ARG_OF_PERICENTER = 272.1422
MEAN_ANOMALY   = 87.9338

EPHEMERIS_TYPE = 0
CLASSIFICATION_TYPE = U
NORAD_CAT_ID   = 66822
ELEMENT_SET_NO = 999
REV_AT_EPOCH   = 481
BSTAR          = .11406E-2
MEAN_MOTION_DOT = .70855E-3
MEAN_MOTION_DDOT = 0

CCSDS_OMM_VERS = 2.0
CREATION_DATE  = 
ORIGINATOR     = 

OBJECT_NAME    = STARLINK-35957
OBJECT_ID      = 2025-280C
CENTER_NAME    = EARTH
REF_FRAME      = TEME
TIME_SYSTEM    = UTC
MEAN_ELEMENT_THEORY = SGP/SGP4

EPOCH          = 2025-12-24T20:24:57.614112
MEAN_MOTION    = 15.52611622
ECCENTRICITY   = .0003279
INCLINATION    = 70.0004
RA_OF_ASC_NODE = 165.2405
ARG_OF_PERICENTER = 272.9224
MEAN_ANOMALY   = 87.1588

EPHEMERIS_TYPE = 0
CLASSIFICATION_TYPE = U
NORAD_CAT_ID   = 66823
ELEMENT_SET_NO = 999
REV_AT_EPOCH   = 481
BSTAR          = .23178E-2
MEAN_MOTION_DOT = .145551E-2
MEAN_MOTION_DDOT = 0

CCSDS_OMM_VERS = 2.0
CREATION_DATE  = 
ORIGINATOR     = 

OBJECT_NAME    = STARLINK-35896
OBJECT_ID      = 2025-280D
CENTER_NAME    = EARTH
REF_FRAME      = TEME
TIME_SYSTEM    = UTC
MEAN_ELEMENT_THEORY = SGP/SGP4

EPOCH          = 2025-12-24T20:24:28.469664
MEAN_MOTION    = 15.52557184
ECCENTRICITY   = .0003295
INCLINATION    = 70.0004
RA_OF_ASC_NODE = 165.2388
ARG_OF_PERICENTER = 269.8029
MEAN_ANOMALY   = 90.2780

EPHEMERIS_TYPE = 0
CLASSIFICATION_TYPE = U
NORAD_CAT_ID   = 66824
ELEMENT_SET_NO = 999
REV_AT_EPOCH   = 481
BSTAR          = .13222E-2
MEAN_MOTION_DOT = .82133E-3
MEAN_MOTION_DDOT = 0

CCSDS_OMM_VERS = 2.0
CREATION_DATE  = 
ORIGINATOR     = 

OBJECT_NAME    = STARLINK-35476
OBJECT_ID      = 2025-280E
CENTER_NAME    = EARTH
REF_FRAME      = TEME
TIME_SYSTEM    = UTC
MEAN_ELEMENT_THEORY = SGP/SGP4

EPOCH          = 2025-12-24T20:23:58.812864
MEAN_MOTION    = 15.52549304
ECCENTRICITY   = .0003594
INCLINATION    = 70.0004
RA_OF_ASC_NODE = 165.2374
ARG_OF_PERICENTER = 273.6538
MEAN_ANOMALY   = 86.4238

EPHEMERIS_TYPE = 0
CLASSIFICATION_TYPE = U
NORAD_CAT_ID   = 66825
ELEMENT_SET_NO = 999
REV_AT_EPOCH   = 481
BSTAR          = .11258E-2
MEAN_MOTION_DOT = .69781E-3
MEAN_MOTION_DDOT = 0

CCSDS_OMM_VERS = 2.0
CREATION_DATE  = 
ORIGINATOR     = 

OBJECT_NAME    = STARLINK-35898
OBJECT_ID      = 2025-280F
CENTER_NAME    = EARTH
REF_FRAME      = TEME
TIME_SYSTEM    = UTC
MEAN_ELEMENT_THEORY = SGP/SGP4

EPOCH          = 2025-12-24T06:28:28.202304
MEAN_MOTION    = 15.52563025
ECCENTRICITY   = .00034665
INCLINATION    = 70.0005
RA_OF_ASC_NODE = 166.8242
ARG_OF_PERICENTER = 272.4316
MEAN_ANOMALY   = 87.6474

EPHEMERIS_TYPE = 0
CLASSIFICATION_TYPE = U
NORAD_CAT_ID   = 66826
ELEMENT_SET_NO = 999
REV_AT_EPOCH   = 472
BSTAR          = .19255513E-2
MEAN_MOTION_DOT = .120295E-2
MEAN_MOTION_DDOT = 0

CCSDS_OMM_VERS = 2.0
CREATION_DATE  = 
ORIGINATOR     = 

OBJECT_NAME    = STARLINK-35959
OBJECT_ID      = 2025-280G
CENTER_NAME    = EARTH
REF_FRAME      = TEME
TIME_SYSTEM    = UTC
MEAN_ELEMENT_THEORY = SGP/SGP4

EPOCH          = 2025-12-24T20:22:59.610720
MEAN_MOTION    = 15.52563381
ECCENTRICITY   = .0003212
INCLINATION    = 70.0005
RA_OF_ASC_NODE = 165.2343
ARG_OF_PERICENTER = 273.0883
MEAN_ANOMALY   = 86.9936

EPHEMERIS_TYPE = 0
CLASSIFICATION_TYPE = U
NORAD_CAT_ID   = 66827
ELEMENT_SET_NO = 999
REV_AT_EPOCH   = 481
BSTAR          = .16361E-2
MEAN_MOTION_DOT = .101948E-2
MEAN_MOTION_DDOT = 0

CCSDS_OMM_VERS = 2.0
CREATION_DATE  = 
ORIGINATOR     = 

OBJECT_NAME    = STARLINK-35982
OBJECT_ID      = 2025-280H
CENTER_NAME    = EARTH
REF_FRAME      = TEME
TIME_SYSTEM    = UTC
MEAN_ELEMENT_THEORY = SGP/SGP4

EPOCH          = 2025-12-24T06:26:59.313120
MEAN_MOTION    = 15.52556813
ECCENTRICITY   = .00034789
INCLINATION    = 70.0004
RA_OF_ASC_NODE = 166.8199
ARG_OF_PERICENTER = 274.0348
MEAN_ANOMALY   = 86.0441

EPHEMERIS_TYPE = 0
CLASSIFICATION_TYPE = U
NORAD_CAT_ID   = 66828
ELEMENT_SET_NO = 999
REV_AT_EPOCH   = 472
BSTAR          = .1436854E-2
MEAN_MOTION_DOT = .89352E-3
MEAN_MOTION_DDOT = 0

CCSDS_OMM_VERS = 2.0
CREATION_DATE  = 
ORIGINATOR     = 

OBJECT_NAME    = STARLINK-36084
OBJECT_ID      = 2025-280J
CENTER_NAME    = EARTH
REF_FRAME      = TEME
TIME_SYSTEM    = UTC
MEAN_ELEMENT_THEORY = SGP/SGP4

EPOCH          = 2025-12-24T06:27:28.919808
MEAN_MOTION    = 15.52550052
ECCENTRICITY   = .00033981
INCLINATION    = 70.0005
RA_OF_ASC_NODE = 166.8208
ARG_OF_PERICENTER = 270.7103
MEAN_ANOMALY   = 89.3694

EPHEMERIS_TYPE = 0
CLASSIFICATION_TYPE = U
NORAD_CAT_ID   = 66829
ELEMENT_SET_NO = 999
REV_AT_EPOCH   = 472
BSTAR          = .10751032E-2
MEAN_MOTION_DOT = .66605E-3
MEAN_MOTION_DDOT = 0

CCSDS_OMM_VERS = 2.0
CREATION_DATE  = 
ORIGINATOR     = 

OBJECT_NAME    = STARLINK-35881
OBJECT_ID      = 2025-280K
CENTER_NAME    = EARTH
REF_FRAME      = TEME
TIME_SYSTEM    = UTC
MEAN_ELEMENT_THEORY = SGP/SGP4

EPOCH          = 2025-12-24T06:26:29.670144
MEAN_MOTION    = 15.52567860
ECCENTRICITY   = .0003434
INCLINATION    = 70.0006
RA_OF_ASC_NODE = 166.8181
ARG_OF_PERICENTER = 271.0875
MEAN_ANOMALY   = 88.9918

EPHEMERIS_TYPE = 0
CLASSIFICATION_TYPE = U
NORAD_CAT_ID   = 66830
ELEMENT_SET_NO = 999
REV_AT_EPOCH   = 472
BSTAR          = .19328837E-2
MEAN_MOTION_DOT = .120782E-2
MEAN_MOTION_DDOT = 0

CCSDS_OMM_VERS = 2.0
CREATION_DATE  = 
ORIGINATOR     = 

OBJECT_NAME    = STARLINK-35788
OBJECT_ID      = 2025-280L
CENTER_NAME    = EARTH
REF_FRAME      = TEME
TIME_SYSTEM    = UTC
MEAN_ELEMENT_THEORY = SGP/SGP4

EPOCH          = 2025-12-24T06:26:00.145536
MEAN_MOTION    = 15.52563420
ECCENTRICITY   = .00032192
INCLINATION    = 70.0003
RA_OF_ASC_NODE = 166.8179
ARG_OF_PERICENTER = 284.3113
MEAN_ANOMALY   = 75.7717

EPHEMERIS_TYPE = 0
CLASSIFICATION_TYPE = U
NORAD_CAT_ID   = 66831
ELEMENT_SET_NO = 999
REV_AT_EPOCH   = 472
BSTAR          = .17361388E-2
MEAN_MOTION_DOT = .108279E-2
MEAN_MOTION_DDOT = 0

