KOMPSAT-7               
1 66820U 25279A   25358.28053538  .00003129  00000+0  25169-3 0  9994
2 66820  97.6458 303.9466 0011186 224.5500 135.4826 15.00667900  3386
STARLINK-35966          
1 66821U 25280A   25358.85134528  .00061592  00000+0  99471-3 0  9994
2 66821  70.0006 165.2423 0003203 272.6205  87.4616 15.52559258  4815
STARLINK-35958          
1 66822U 25280B   25358.85100321  .00070855  00000+0  11406-2 0  9992
2 66822  70.0005 165.2417 0003730 272.1422  87.9338 15.52605658  4811
STARLINK-35957          
1 66823U 25280C   25358.85066683  .00145551  00000+0  23178-2 0  9990
2 66823  70.0004 165.2405 0003279 272.9224  87.1588 15.52611622  4811
STARLINK-35896          
1 66824U 25280D   25358.85032951  .00082133  00000+0  13222-2 0  9997
2 66824  70.0004 165.2388 0003295 269.8029  90.2780 15.52557184  4819
STARLINK-35476          
1 66825U 25280E   25358.84998626  .00069781  00000+0  11258-2 0  9998
2 66825  70.0004 165.2374 0003594 273.6538  86.4238 15.52549304  4815
STARLINK-35898          
1 66826U 25280F   25358.26977086  .00120295  00000+0  19256-2 0  9996
2 66826  70.0005 166.8242 0003466 272.4316  87.6474 15.52563025  4728
STARLINK-35959          
1 66827U 25280G   25358.84930105  .00101948  00000+0  16361-2 0  9990
2 66827  70.0005 165.2343 0003212 273.0883  86.9936 15.52563381  4819
STARLINK-35982          
1 66828U 25280H   25358.26874205  .00089352  00000+0  14369-2 0  9995
2 66828  70.0004 166.8199 0003478 274.0348  86.0441 15.52556813  4720
STARLINK-36084          
1 66829U 25280J   25358.26908472  .00066605  00000+0  10751-2 0  9997
2 66829  70.0005 166.8208 0003398 270.7103  89.3694 15.52550052  4721
STARLINK-35881          
1 66830U 25280K   25358.26839896  .00120782  00000+0  19329-2 0  9999
2 66830  70.0006 166.8181 0003434 271.0875  88.9918 15.52567860  4724
STARLINK-35788          
1 66831U 25280L   25358.26805724  .00108279  00000+0  17361-2 0  9994
2 66831  70.0003 166.8179 0003219 284.3113  75.7717 15.52563420  4721
